[{"OBJECT_NAME":"STARLINK-1413","OBJECT_ID":"2020-035AJ","EPOCH":"2026-03-09T23:07:21.119232","MEAN_MOTION":15.30196842,"ECCENTRICITY":0.00013861,"INCLINATION":53.1621,"RA_OF_ASC_NODE":48.3049,"ARG_OF_PERICENTER":76.6572,"MEAN_ANOMALY":283.4583,"EPHEMERIS_TYPE":0,"CLASSIFICATION_TYPE":"U","NORAD_CAT_ID":45689,"ELEMENT_SET_NO":999,"REV_AT_EPOCH":31893,"BSTAR":1.4614986e-5,"MEAN_MOTION_DOT":7.4e-7,"MEAN_MOTION_DDOT":0},{"OBJECT_NAME":"GEISAT PRECURSOR","OBJECT_ID":"2023-084C","EPOCH":"2026-03-09T22:20:25.833120","MEAN_MOTION":15.33054389,"ECCENTRICITY":0.00051675,"INCLINATION":97.6055,"RA_OF_ASC_NODE":206.8263,"ARG_OF_PERICENTER":345.1842,"MEAN_ANOMALY":14.9247,"EPHEMERIS_TYPE":0,"CLASSIFICATION_TYPE":"U","NORAD_CAT_ID":56934,"ELEMENT_SET_NO":999,"REV_AT_EPOCH":15231,"BSTAR":0.00033857167,"MEAN_MOTION_DOT":0.00010736,"MEAN_MOTION_DDOT":0}]
